{
  "norad_id": 60993,
  "name": "STARLINK-11283 [DTC]",
  "history": [
    {
      "epoch": "2026-03-28T18:01:50.705184Z",
      "apogee_km": 360.55312526842863,
      "perigee_km": 358.82298655057275,
      "latitude_deg": -2.460873178553943e-07,
      "longitude_deg": 91.024295699188,
      "height_km": 360.61267832711667,
      "semi_major_axis_km": 6737.8250559095,
      "eccentricity": 0.00012839,
      "inclination_deg": 53.1608,
      "raan_deg": 187.6528,
      "arg_perigee_deg": 90.7366,
      "mean_anomaly_deg": 269.3799,
      "mean_motion_rev_day": 15.69723522
    },
    {
      "epoch": "2026-03-29T23:03:50.774112Z",
      "apogee_km": 360.5680080397842,
      "perigee_km": 358.76631920643194,
      "latitude_deg": -3.661259329337523e-05,
      "longitude_deg": 8.368424381648385,
      "height_km": 360.33969224709915,
      "semi_major_axis_km": 6737.804163623108,
      "eccentricity": 0.0001337,
      "inclination_deg": 53.1612,
      "raan_deg": 181.6896,
      "arg_perigee_deg": 74.4813,
      "mean_anomaly_deg": 285.6352,
      "mean_motion_rev_day": 15.69730823
    },
    {
      "epoch": "2026-03-29T23:03:50.774976Z",
      "apogee_km": 360.5678732837023,
      "perigee_km": 358.7664539625148,
      "latitude_deg": -3.4834877127006015e-05,
      "longitude_deg": 8.36842209609604,
      "height_km": 360.3397283007561,
      "semi_major_axis_km": 6737.804163623108,
      "eccentricity": 0.00013368,
      "inclination_deg": 53.1612,
      "raan_deg": 181.6896,
      "arg_perigee_deg": 74.4813,
      "mean_anomaly_deg": 285.6352,
      "mean_motion_rev_day": 15.69730823
    },
    {
      "epoch": "2026-03-30T12:49:02.123904Z",
      "apogee_km": 360.3656892560648,
      "perigee_km": 359.1870934456492,
      "latitude_deg": -4.194737226297923e-05,
      "longitude_deg": 158.68000833139672,
      "height_km": 360.4666553667143,
      "semi_major_axis_km": 6737.913391350857,
      "eccentricity": 8.746e-05,
      "inclination_deg": 53.1603,
      "raan_deg": 178.8633,
      "arg_perigee_deg": 67.6786,
      "mean_anomaly_deg": 292.4324,
      "mean_motion_rev_day": 15.69692653
    },
    {
      "epoch": "2026-03-30T15:52:23.971584Z",
      "apogee_km": 360.47657957344654,
      "perigee_km": 359.0542083780774,
      "latitude_deg": -5.2922737583488344e-05,
      "longitude_deg": 112.08466001476191,
      "height_km": 360.4562821766381,
      "semi_major_axis_km": 6737.902393975762,
      "eccentricity": 0.00010555,
      "inclination_deg": 53.1592,
      "raan_deg": 178.2345,
      "arg_perigee_deg": 71.7413,
      "mean_anomaly_deg": 288.3719,
      "mean_motion_rev_day": 15.69696496
    },
    {
      "epoch": "2026-04-01T12:11:14.139456Z",
      "apogee_km": 360.5062398449627,
      "perigee_km": 358.99560537271464,
      "latitude_deg": -2.692732963283225e-05,
      "longitude_deg": 156.45394033789407,
      "height_km": 360.3230703581471,
      "semi_major_axis_km": 6737.887922608838,
      "eccentricity": 0.0001121,
      "inclination_deg": 53.1583,
      "raan_deg": 169.1327,
      "arg_perigee_deg": 63.1226,
      "mean_anomaly_deg": 296.9906,
      "mean_motion_rev_day": 15.69701553
    },
    {
      "epoch": "2026-04-02T14:09:49.728960Z",
      "apogee_km": 359.8571238185323,
      "perigee_km": 359.70080416816836,
      "latitude_deg": 3.449780169695132e-05,
      "longitude_deg": 120.40317840988561,
      "height_km": 360.6476789070423,
      "semi_major_axis_km": 6737.9159639933505,
      "eccentricity": 1.16e-05,
      "inclination_deg": 53.1595,
      "raan_deg": 163.797,
      "arg_perigee_deg": 53.7983,
      "mean_anomaly_deg": 306.3046,
      "mean_motion_rev_day": 15.69691754
    },
    {
      "epoch": "2026-04-03T14:36:50.306112Z",
      "apogee_km": 360.49319232413654,
      "perigee_km": 359.2560933865079,
      "latitude_deg": 3.3300591801954673e-05,
      "longitude_deg": 107.62334055611271,
      "height_km": 360.89066242795747,
      "semi_major_axis_km": 6738.011642855322,
      "eccentricity": 9.18e-05,
      "inclination_deg": 53.1575,
      "raan_deg": 158.7737,
      "arg_perigee_deg": 99.5293,
      "mean_anomaly_deg": 260.5829,
      "mean_motion_rev_day": 15.6965832
    },
    {
      "epoch": "2026-04-04T10:28:38.990496Z",
      "apogee_km": 360.43702712433696,
      "perigee_km": 358.88423428236456,
      "latitude_deg": 3.808187591145254e-05,
      "longitude_deg": 164.77682615236094,
      "height_km": 360.8136877611201,
      "semi_major_axis_km": 6737.7976307033505,
      "eccentricity": 0.00011523,
      "inclination_deg": 53.1585,
      "raan_deg": 154.6958,
      "arg_perigee_deg": 107.972,
      "mean_anomaly_deg": 252.1424,
      "mean_motion_rev_day": 15.69733106
    },
    {
      "epoch": "2026-04-05T10:55:38.560224Z",
      "apogee_km": 361.2453077351165,
      "perigee_km": 358.433550171314,
      "latitude_deg": -2.1861651048872216e-05,
      "longitude_deg": 152.00195203055134,
      "height_km": 362.1079956423318,
      "semi_major_axis_km": 6737.976428953215,
      "eccentricity": 0.00020865,
      "inclination_deg": 53.1582,
      "raan_deg": 149.6733,
      "arg_perigee_deg": 164.4526,
      "mean_anomaly_deg": 195.6556,
      "mean_motion_rev_day": 15.69670625
    },
    {
      "epoch": "2026-04-07T11:49:30.466272Z",
      "apogee_km": 360.8251337939573,
      "perigee_km": 358.6415247776431,
      "latitude_deg": 2.390497564318756e-05,
      "longitude_deg": 126.48384672153027,
      "height_km": 361.6002461371708,
      "semi_major_axis_km": 6737.8703292858,
      "eccentricity": 0.00016204,
      "inclination_deg": 53.1586,
      "raan_deg": 139.6296,
      "arg_perigee_deg": 150.7962,
      "mean_anomaly_deg": 209.3147,
      "mean_motion_rev_day": 15.69707701
    },
    {
      "epoch": "2026-04-07T19:27:55.981440Z",
      "apogee_km": 360.3806245491405,
      "perigee_km": 359.10985995825195,
      "latitude_deg": 1.4359684731097395e-05,
      "longitude_deg": 9.996544541035314,
      "height_km": 360.9836870933714,
      "semi_major_axis_km": 6737.882242253696,
      "eccentricity": 9.43e-05,
      "inclination_deg": 53.1581,
      "raan_deg": 138.0624,
      "arg_perigee_deg": 120.7243,
      "mean_anomaly_deg": 239.3868,
      "mean_motion_rev_day": 15.69703538
    },
    {
      "epoch": "2026-04-08T12:16:27.056064Z",
      "apogee_km": 360.5205774940214,
      "perigee_km": 358.9998340946722,
      "latitude_deg": -2.20597509035571e-05,
      "longitude_deg": 113.7220316938882,
      "height_km": 360.7641272507698,
      "semi_major_axis_km": 6737.8972057943465,
      "eccentricity": 0.00011285,
      "inclination_deg": 53.1588,
      "raan_deg": 134.6077,
      "arg_perigee_deg": 96.8299,
      "mean_anomaly_deg": 263.2847,
      "mean_motion_rev_day": 15.69698309
    },
    {
      "epoch": "2026-04-09T08:08:19.996512Z",
      "apogee_km": 360.4839510412721,
      "perigee_km": 358.974803730066,
      "latitude_deg": -6.578004569104173e-06,
      "longitude_deg": 170.85554105950132,
      "height_km": 360.6114776480076,
      "semi_major_axis_km": 6737.866377385669,
      "eccentricity": 0.00011199,
      "inclination_deg": 53.16,
      "raan_deg": 130.5276,
      "arg_perigee_deg": 87.6049,
      "mean_anomaly_deg": 272.5097,
      "mean_motion_rev_day": 15.69709082
    },
    {
      "epoch": "2026-04-11T10:33:54.944064Z",
      "apogee_km": 360.79937047205476,
      "perigee_km": 358.74969778337345,
      "latitude_deg": 1.709587355672929e-05,
      "longitude_deg": 122.03030129718313,
      "height_km": 360.8176846651148,
      "semi_major_axis_km": 6737.911534127714,
      "eccentricity": 0.0001521,
      "inclination_deg": 53.1602,
      "raan_deg": 120.1689,
      "arg_perigee_deg": 97.29,
      "mean_anomaly_deg": 262.8291,
      "mean_motion_rev_day": 15.69693302
    },
    {
      "epoch": "2026-04-13T05:21:02.794464Z",
      "apogee_km": 360.8793542393196,
      "perigee_km": 358.6076104558924,
      "latitude_deg": 9.587426044883473e-07,
      "longitude_deg": -170.29646059715844,
      "height_km": 360.6843722880248,
      "semi_major_axis_km": 6737.880482347606,
      "eccentricity": 0.00016858,
      "inclination_deg": 53.1594,
      "raan_deg": 111.382,
      "arg_perigee_deg": 91.4181,
      "mean_anomaly_deg": 268.703,
      "mean_motion_rev_day": 15.69704153
    },
    {
      "epoch": "2026-04-14T04:16:18.530400Z",
      "apogee_km": 360.46719077770194,
      "perigee_km": 359.02932606355535,
      "latitude_deg": -3.850657596339563e-07,
      "longitude_deg": -159.76106084368092,
      "height_km": 360.69141460703463,
      "semi_major_axis_km": 6737.885258420629,
      "eccentricity": 0.0001067,
      "inclination_deg": 53.1573,
      "raan_deg": 106.6743,
      "arg_perigee_deg": 92.3717,
      "mean_anomaly_deg": 267.7423,
      "mean_motion_rev_day": 15.69702484
    },
    {
      "epoch": "2026-04-15T06:14:56.069088Z",
      "apogee_km": 360.4696476249328,
      "perigee_km": 359.01157091028836,
      "latitude_deg": 2.367002441635707e-05,
      "longitude_deg": 164.17890629354162,
      "height_km": 360.6212169481741,
      "semi_major_axis_km": 6737.877609267611,
      "eccentricity": 0.0001082,
      "inclination_deg": 53.1588,
      "raan_deg": 101.3375,
      "arg_perigee_deg": 87.4103,
      "mean_anomaly_deg": 272.7039,
      "mean_motion_rev_day": 15.69705157
    },
    {
      "epoch": "2026-04-16T15:51:58.438656Z",
      "apogee_km": 360.372096292489,
      "perigee_km": 359.0824690687841,
      "latitude_deg": 3.235064439457972e-05,
      "longitude_deg": 11.6345278162029,
      "height_km": 360.47103899561733,
      "semi_major_axis_km": 6737.864282680636,
      "eccentricity": 9.57e-05,
      "inclination_deg": 53.1593,
      "raan_deg": 94.4336,
      "arg_perigee_deg": 74.7082,
      "mean_anomaly_deg": 285.4042,
      "mean_motion_rev_day": 15.69709814
    }
  ]
}